NORAD_CAT_ID,OBJECT_NAME,OBJECT_TYPE,EPOCH,MEAN_MOTION,ECCENTRICITY,INCLINATION,RA_OF_ASC_NODE,ARG_OF_PERICENTER,MEAN_ANOMALY,BSTAR,MEAN_MOTION_DOT,MEAN_MOTION_DDOT,TLE_LINE0,TLE_LINE1,TLE_LINE2,SEMIMAJOR_AXIS,PERIOD,APOGEE,PERIGEE,DECAYED
49741.0,STARLINK-3244,PAYLOAD,2022-04-13 14:00:03,15.0887243,0.0002192,53.2169,71.1731,43.7215,226.0916,-0.0016120999999999,-0.00025877,0.0,0 STARLINK-3244,1 49741U 21115T   22103.58336806 -.00025877  00000-0 -16121-2 0  9996,2 49741  53.2169  71.1731 0002192  43.7215 226.0916 15.08872430  3567,6917.781,95.436,541.163,538.13,0.0
49741.0,STARLINK-3244,PAYLOAD,2022-04-13 22:00:00,15.08876184,0.0002059,53.2171,69.6761,48.3281,232.9779,-0.0014618,-0.00023501,0.0,0 STARLINK-3244,1 49741U 21115T   22103.91667824 -.00023501  00000-0 -14618-2 0  9991,2 49741  53.2171  69.6761 0002059  48.3281 232.9779 15.08876184 21407,6917.77,95.435,541.059,538.21,0.0
49741.0,STARLINK-3244,PAYLOAD,2022-04-14 14:00:01,15.08865935,0.0002063,53.2168,66.6838,42.8251,261.7019,-0.0045626999999999,-0.00072229,0.0,0 STARLINK-3244,1 49741U 21115T   22104.58334491 -.00072229  00000-0 -45627-2 0  9991,2 49741  53.2168  66.6838 0002063  42.8251 261.7019 15.08865935  3595,6917.801,95.436,541.0930000000002,538.239,0.0
49741.0,STARLINK-3244,PAYLOAD,2022-04-14 22:00:00,15.08833385,0.0001941,53.2171,65.1869,47.0837,269.0395,0.00091353,0.00014278,0.0,0 STARLINK-3244,1 49741U 21115T   22104.91667824  .00014278  00000-0  91353-3 0  9993,2 49741  53.2171  65.1869 0001941  47.0837 269.0395 15.08833385  3602,6917.901,95.438,541.1080000000002,538.423,0.0
49741.0,STARLINK-3244,PAYLOAD,2022-04-15 06:00:00,15.08828921,0.0002151,53.2171,63.6923,43.023,284.7008,0.0020636,0.00032697,0.0,0 STARLINK-3244,1 49741U 21115T   22105.25001157  .00032697  00000-0  20636-2 0  9992,2 49741  53.2171  63.6923 0002151  43.0230 284.7008 15.08828921 21608,6917.9140000000025,95.438,541.2669999999998,538.2909999999998,0.0
49741.0,STARLINK-3244,PAYLOAD,2022-04-15 14:00:01,15.0887835,0.0001983,53.2168,62.1946,44.8209,294.5146,-0.0008244999999999,-0.000134,0.0,0 STARLINK-3244,1 49741U 21115T   22105.58334491 -.00013400  00000-0 -82450-3 0  9994,2 49741  53.2168  62.1946 0001983  44.8209 294.5146 15.08878350  3591,6917.763000000001,95.435,541.0,538.256,0.0
49741.0,STARLINK-3244,PAYLOAD,2022-04-15 22:00:00,15.08869171,0.000188,53.2171,60.6979,47.2595,303.6917,-0.0015279,-0.00024542,0.0,0 STARLINK-3244,1 49741U 21115T   22105.91667824 -.00024542  00000-0 -15279-2 0  9993,2 49741  53.2171  60.6979 0001880  47.2595 303.6917 15.08869171  3572,6917.791,95.436,540.957,538.356,0.0
49741.0,STARLINK-3244,PAYLOAD,2022-04-16 06:00:00,15.08841706,0.0001997,53.2171,59.2033,39.2967,323.2725,-0.0032387,-0.00051468,0.0,0 STARLINK-3244,1 49741U 21115T   22106.25001157 -.00051468  00000-0 -32387-2 0  9998,2 49741  53.2171  59.2033 0001997  39.2967 323.2725 15.08841706 21759,6917.875,95.437,541.122,538.359,0.0
49741.0,STARLINK-3244,PAYLOAD,2022-04-16 14:00:01,15.08795958,0.0001813,53.2169,57.7055,37.9675,336.1793,-0.00070031,-0.00011403,0.0,0 STARLINK-3244,1 49741U 21115T   22106.58334491 -.00011403  00000-0 -70031-3 0  9998,2 49741  53.2169  57.7055 0001813  37.9675 336.1793 15.08795958  3600,6918.015,95.44,541.134,538.626,0.0
49741.0,STARLINK-3244,PAYLOAD,2022-04-16 22:00:01,15.08806853,0.0001793,53.2172,56.209,42.0065,343.7352,1.1311e-05,-1.08e-06,0.0,0 STARLINK-3244,1 49741U 21115T   22106.91668981 -.00000108  00000-0  11311-4 0  9995,2 49741  53.2172  56.2090 0001793  42.0065 343.7352 15.08806853 21853,6917.982,95.44,541.087,538.606,0.0
49741.0,STARLINK-3244,PAYLOAD,2022-04-17 14:00:01,15.08818477,0.0001891,53.2175,53.2167,39.83,8.9626,-2.356e-05,-6.63e-06,0.0,0 STARLINK-3244,1 49741U 21115T   22107.58334491 -.00000663  00000-0 -23560-4 0  9991,2 49741  53.2175  53.2167 0001891  39.8300   8.9626 15.08818477  3571,6917.946,95.439,541.119,538.503,0.0
49741.0,STARLINK-3244,PAYLOAD,2022-04-17 22:00:00,15.08838501,0.0001908,53.2176,51.7205,43.1789,17.1768,-0.00012858,-2.334e-05,0.0,0 STARLINK-3244,1 49741U 21115T   22107.91667824 -.00002334  00000-0 -12858-3 0  9991,2 49741  53.2176  51.7205 0001908  43.1789  17.1768 15.08838501  3575,6917.885,95.438,541.07,538.43,0.0
49741.0,STARLINK-3244,PAYLOAD,2022-04-18 08:00:01,15.08824729,0.0002108,53.2177,49.8516,38.1811,126.6655,0.0027775,0.00044175,0.0,0 STARLINK-3244,1 49741U 21115T   22108.33334491  .00044175  00000-0  27775-2 0  9999,2 49741  53.2177  49.8516 0002108  38.1811 126.6655 15.08824729 22065,6917.927,95.439,541.25,538.3340000000002,0.0
49741.0,STARLINK-3244,PAYLOAD,2022-04-18 14:00:01,15.08848472,0.0001986,53.218,48.7279,42.3614,41.1806,-3.5521e-05,-8.54e-06,0.0,0 STARLINK-3244,1 49741U 21115T   22108.58334491 -.00000854  00000-0 -35521-4 0  9994,2 49741  53.2180  48.7279 0001986  42.3614  41.1806 15.08848472  3603,6917.854,95.437,541.0930000000002,538.346,0.0
49741.0,STARLINK-3244,PAYLOAD,2022-04-18 22:00:00,15.08866782,0.0002075,53.2177,47.2318,46.3672,48.7799,-0.0023801,-0.00037997,0.0,0 STARLINK-3244,1 49741U 21115T   22108.91667824 -.00037997  00000-0 -23801-2 0  9994,2 49741  53.2177  47.2318 0002075  46.3672  48.7799 15.08866782 22154,6917.799,95.436,541.099,538.2280000000002,0.0
49741.0,STARLINK-3244,PAYLOAD,2022-04-19 14:00:01,15.08860496,0.0002084,53.2163,44.239,45.7582,72.6038,-0.0008472999999999,-0.00013756,0.0,0 STARLINK-3244,1 49741U 21115T   22109.58334491 -.00013756  00000-0 -84730-3 0  9995,2 49741  53.2163  44.2390 0002084  45.7582  72.6038 15.08860496 22258,6917.818,95.436,541.124,538.241,0.0
49741.0,STARLINK-3244,PAYLOAD,2022-04-20 14:00:01,15.08821268,0.000195,53.2164,39.7499,43.6509,109.5255,0.00099608,0.00015592,0.0,0 STARLINK-3244,1 49741U 21115T   22110.58334491  .00015592  00000-0  99608-3 0  9995,2 49741  53.2164  39.7499 0001950  43.6509 109.5255 15.08821268  3608,6917.938,95.439,541.1519999999998,538.4540000000002,0.0
49741.0,STARLINK-3244,PAYLOAD,2022-04-20 22:00:00,15.08830233,0.0001989,53.2167,38.2539,45.6871,119.0739,0.00076812,0.00011955,0.0,0 STARLINK-3244,1 49741U 21115T   22110.91667824  .00011955  00000-0  76812-3 0  9992,2 49741  53.2167  38.2539 0001989  45.6871 119.0739 15.08830233 22455,6917.91,95.438,541.151,538.399,0.0
49741.0,STARLINK-3244,PAYLOAD,2022-04-21 14:00:01,15.08832261,0.0001856,53.2162,35.2607,43.2233,144.7309,0.00038795,5.89e-05,0.0,0 STARLINK-3244,1 49741U 21115T   22111.58334491  .00005890  00000-0  38795-3 0  9996,2 49741  53.2162  35.2607 0001856  43.2233 144.7309 15.08832261  3609,6917.904,95.438,541.053,538.485,0.0
49741.0,STARLINK-3244,PAYLOAD,2022-04-21 22:00:00,15.08845409,0.000195,53.2163,33.7649,46.627,152.9192,-0.0014175999999999,-0.00022782,0.0,0 STARLINK-3244,1 49741U 21115T   22111.91667824 -.00022782  00000-0 -14176-2 0  9999,2 49741  53.2163  33.7649 0001950  46.6270 152.9192 15.08845409  3588,6917.864000000001,95.437,541.078,538.38,0.0
49741.0,STARLINK-3244,PAYLOAD,2022-04-22 06:00:00,15.0881555,0.0002096,53.2158,32.2697,43.2092,167.9323,0.0035423,0.00056503,0.0,0 STARLINK-3244,1 49741U 21115T   22112.25001157  .00056503  00000-0  35423-2 0  9992,2 49741  53.2158  32.2697 0002096  43.2092 167.9323 15.08815550 22651,6917.955,95.439,541.27,538.37,0.0
49741.0,STARLINK-3244,PAYLOAD,2022-04-22 14:00:01,15.08839531,0.0001888,53.2157,30.7713,47.2767,175.4639,0.0014522,0.00022899,0.0,0 STARLINK-3244,1 49741U 21115T   22112.58334491  .00022899  00000-0  14522-2 0  9996,2 49741  53.2157  30.7713 0001888  47.2767 175.4639 15.08839531  3606,6917.882,95.438,541.053,538.441,0.0
49741.0,STARLINK-3244,PAYLOAD,2022-04-22 22:00:00,15.08869414,0.0001873,53.2158,29.2758,46.3268,188.0183,-0.0042115,-0.00066748,0.0,0 STARLINK-3244,1 49741U 21115T   22112.91667824 -.00066748  00000-0 -42115-2 0  9994,2 49741  53.2158  29.2758 0001873  46.3268 188.0183 15.08869414 22764,6917.79,95.436,540.951,538.36,0.0
49741.0,STARLINK-3244,PAYLOAD,2022-04-23 14:00:01,15.0881841,0.0001803,53.2154,26.282,45.458,212.0681,0.0012561,0.00019748,0.0,0 STARLINK-3244,1 49741U 21115T   22113.58334491  .00019748  00000-0  12561-2 0  9997,2 49741  53.2154  26.2820 0001803  45.4580 212.0681 15.08818410 22869,6917.946,95.439,541.059,538.564,0.0
49741.0,STARLINK-3244,PAYLOAD,2022-04-24 14:00:01,15.08830681,0.0001882,53.2152,21.7926,48.6376,243.6473,0.0023201,0.00036821,0.0,0 STARLINK-3244,1 49741U 21115T   22114.58334491  .00036821  00000-0  23201-2 0  9992,2 49741  53.2152  21.7926 0001882  48.6376 243.6473 15.08830681 23010,6917.909000000002,95.438,541.076,538.472,0.0
49741.0,STARLINK-3244,PAYLOAD,2022-04-25 06:00:00,15.08816719,0.0001996,53.2152,18.8014,40.5199,274.9565,0.0010447,0.00016367,0.0,0 STARLINK-3244,1 49741U 21115T   22115.25001157  .00016367  00000-0  10447-2 0  9998,2 49741  53.2152  18.8014 0001996  40.5199 274.9565 15.08816719 23111,6917.9519999999975,95.439,541.197,538.436,0.0
49741.0,STARLINK-3244,PAYLOAD,2022-04-25 14:00:01,15.08802616,0.0001819,53.2155,17.3033,46.714,280.2999,0.0038364,0.00061237,0.0,0 STARLINK-3244,1 49741U 21115T   22115.58334491  .00061237  00000-0  38364-2 0  9998,2 49741  53.2155  17.3033 0001819  46.7140 280.2999 15.08802616 23164,6917.995,95.44,541.118,538.601,0.0
49741.0,STARLINK-3244,PAYLOAD,2022-04-25 22:00:00,15.08856043,0.0001961,53.2158,15.8081,45.592,292.9994,-0.0006294,-0.00010296,0.0,0 STARLINK-3244,1 49741U 21115T   22115.91667824 -.00010296  00000-0 -62940-3 0  9993,2 49741  53.2158  15.8081 0001961  45.5920 292.9994 15.08856043  3609,6917.831,95.437,541.053,538.34,0.0
49741.0,STARLINK-3244,PAYLOAD,2022-04-26 06:00:00,15.08871372,0.0001999,53.2157,14.3122,40.898,309.2994,-0.0012626,-0.00020344,0.0,0 STARLINK-3244,1 49741U 21115T   22116.25001157 -.00020344  00000-0 -12626-2 0  9992,2 49741  53.2157  14.3122 0001999  40.8980 309.2994 15.08871372 23261,6917.784000000002,95.436,541.0319999999998,538.2669999999998,0.0
